ONEWEB-0029             
1 45445U 20020X   24345.86795603  .00000516  00000+0  14198-2 0  9994
2 45445  87.8893 131.3150 0001541  90.0910 270.0394 13.11415106230138
ONEWEB-0068             
1 45446U 20020Y   24345.91966185  .00000068  00000+0  15741-3 0  9994
2 45446  87.8896 131.2904 0001512  90.1548 269.9753 13.11418971230087
ONEWEB-0046             
1 45447U 20020Z   24345.91710750 -.00000074  00000+0 -24419-3 0  9991
2 45447  87.8895 131.3029 0001800  95.2585 264.8748 13.11416875230093
ONEWEB-0063             
1 45448U 20020AA  24345.86965252  .00000507  00000+0  13941-2 0  9991
2 45448  87.8894 131.3117 0001736 102.3643 257.7679 13.11414969230179
ONEWEB-0019             
1 45449U 20020AB  24345.92051400  .00000078  00000+0  18548-3 0  9992
2 45449  87.8898 131.3118 0001426 102.3466 257.7821 13.11420025230027
ONEWEB-0094             
1 45450U 20020AC  24345.93439553  .00000098  00000+0  21945-3 0  9991
2 45450  87.9095 116.0551 0001628  97.5323 262.5993 13.17651529233456
ONEWEB-0087             
1 45451U 20020AD  24345.65079223  .00000071  00000+0  16594-3 0  9990
2 45451  87.8886 131.3187 0001608  88.0421 272.0891 13.11414354230032
ONEWEB-0082             
1 45452U 20020AE  24345.87642653  .00000309  00000+0  83548-3 0  9995
2 45452  87.8892 131.2862 0001389  92.1332 267.9955 13.11412923230159
ONEWEB-0050             
1 45453U 20020AF  24345.70623895  .00003871  00000+0  37394-3 0  9990
2 45453  88.0016 343.3798 0004400 125.6837 234.4802 14.92603642257928
ONEWEB-0034             
1 45454U 20020AG  24345.66956859 -.00000469  00000+0 -13588-2 0  9995
2 45454  87.8890 131.3464 0001481  96.3966 263.7330 13.11415988230043
ONEWEB-0060             
1 45455U 20020AH  24345.86470605  .00000583  00000+0  16102-2 0  9998
2 45455  87.8896 131.3289 0001677  99.6790 260.4527 13.11414566230024
ONEWEB-0086             
1 45456U 20020AJ  24345.92389974  .00000204  00000+0  53875-3 0  9993
2 45456  87.8894 131.2959 0001625  82.2039 277.9273 13.11419506230090
ONEWEB-0088             
1 45457U 20020AK  24345.67297092 -.00002026  00000+0 -57551-2 0  9995
2 45457  87.8883 131.3034 0001601  92.6029 267.5282 13.11400035229991
ONEWEB-0102             
1 47258U 20100A   24345.57672311 -.00000230  00000+0 -67504-3 0  9990
2 47258  87.8885 100.9251 0001483 108.9368 251.1921 13.12443179192111
ONEWEB-0109             
1 47259U 20100B   24345.58481132 -.00000359  00000+0 -10342-2 0  9990
2 47259  87.8885 100.8901 0001460 106.7411 253.3878 13.12441035191947
ONEWEB-0110             
1 47260U 20100C   24345.61079079  .00000200  00000+0  52119-3 0  9991
2 47260  87.8878 100.8802 0001431 102.1402 257.9887 13.12444963192112
ONEWEB-0111             
1 47261U 20100D   24345.79407681  .00000115  00000+0  28312-3 0  9998
2 47261  87.8882 100.8486 0001493 105.5585 254.5708 13.12442389191971
ONEWEB-0114             
1 47262U 20100E   24345.59617469 -.00000249  00000+0 -72621-3 0  9996
2 47262  87.8880 100.8962 0001539 115.8386 244.2902 13.12445204191907
ONEWEB-0117             
1 47263U 20100F   24345.74053668 -.00000448  00000+0 -12818-2 0  9991
2 47263  87.8886 100.8504 0001558 102.0531 258.0772 13.12441338191932
ONEWEB-0118             
1 47264U 20100G   24345.62050405  .00000431  00000+0  11613-2 0  9997
2 47264  87.8880 100.8767 0001821 113.4698 246.6622 13.12443170192115
ONEWEB-0119             
1 47265U 20100H   24345.72433473 -.00000113  00000+0 -34869-3 0  9997
2 47265  87.8885 100.8951 0001483 103.5174 256.6120 13.12443127192104
ONEWEB-0120             
1 47266U 20100J   24345.59471085 -.00000298  00000+0 -86502-3 0  9999
2 47266  87.8885 100.9129 0001516 111.4091 248.7199 13.12444052192113
ONEWEB-0121             
1 47267U 20100K   24345.58321279 -.00000358  00000+0 -10308-2 0  9995
2 47267  87.8879 100.8966 0001479  99.6421 260.4874 13.12444175192024
ONEWEB-0122             
1 47268U 20100L   24345.73067785 -.00000313  00000+0 -90644-3 0  9995
2 47268  87.8880 100.8723 0001384 105.3591 254.7690 13.12441925191959
ONEWEB-0123             
1 47269U 20100M   24345.72595313 -.00000139  00000+0 -42061-3 0  9994
2 47269  87.8884 100.8934 0001619 105.6047 254.5260 13.12442468192098
ONEWEB-0124             
1 47270U 20100N   24345.71460167  .00000274  00000+0  72581-3 0  9991
2 47270  87.8889 100.8928 0001548  95.5100 264.6205 13.12442148191978
ONEWEB-0125             
1 47271U 20100P   24345.61565159  .00000371  00000+0  99495-3 0  9999
2 47271  87.8884 100.8735 0001878  99.6099 260.5241 13.12442830192028
ONEWEB-0126             
1 47272U 20100Q   24345.79327072  .00000199  00000+0  51822-3 0  9999
2 47272  87.8880 100.8374 0001513 108.7411 251.3882 13.12442432192117
ONEWEB-0127             
1 47273U 20100R   24345.60266764 -.00000055  00000+0 -18711-3 0  9993
2 47273  87.8882 100.9096 0001457 108.5902 251.5385 13.12443154192114
ONEWEB-0128             
1 47274U 20100S   24345.77786290  .00000495  00000+0  13406-2 0  9994
2 47274  87.8890 100.8892 0001291 100.0521 260.0753 13.12443445192158
ONEWEB-0129             
1 47275U 20100T   24345.75676303 -.00000045  00000+0 -16113-3 0  9998
2 47275  87.8883 100.8491 0001763 149.4543 210.6688 13.12442864192085
ONEWEB-0130             
1 47276U 20100U   24345.78435262  .00000398  00000+0  10710-2 0  9994
2 47276  87.8882 100.8485 0001429 106.3000 253.8286 13.12442470192050
ONEWEB-0131             
1 47277U 20100V   24345.39992260  .00000485  00000+0  13136-2 0  9990
2 47277  87.8882 100.9449 0001442 101.4022 258.7268 13.12442853192045
ONEWEB-0132             
1 47278U 20100W   24345.58158028 -.00000351  00000+0 -10098-2 0  9996
2 47278  87.8885 100.9103 0001655  94.9628 265.1689 13.12442348191968
ONEWEB-0133             
1 47279U 20100X   24345.59779182 -.00000204  00000+0 -60279-3 0  9992
2 47279  87.8879 100.8958 0001472 100.1450 259.9844 13.12441747192124
ONEWEB-0134             
1 47280U 20100Y   24345.71945537  .00000060  00000+0  13223-3 0  9992
2 47280  87.8878 100.8576 0001254 106.8385 253.2881 13.12439645192110
ONEWEB-0135             
1 47281U 20100Z   24345.61402377  .00000363  00000+0  97309-3 0  9995
2 47281  87.8881 100.9048 0001069  97.5043 262.6207 13.12443398192128
ONEWEB-0136             
1 47282U 20100AA  24345.55725371  .00000356  00000+0  95359-3 0  9996
2 47282  87.8884 100.8834 0001135 115.5464 244.5782 13.12440227192042
ONEWEB-0137             
1 47283U 20100AB  24345.59129830 -.00000312  00000+0 -90137-3 0  9992
2 47283  87.8877 100.8930 0001679 107.0022 253.1290 13.12441450191959
ONEWEB-0138             
1 47284U 20100AC  24345.72270369 -.00000059  00000+0 -19986-3 0  9993
2 47284  87.8880 100.8791 0001452 107.7900 252.3387 13.12442021192055
ONEWEB-0139             
1 47285U 20100AD  24345.60929910  .00000179  00000+0  46307-3 0  9992
2 47285  87.8885 100.8811 0001593 104.2023 255.9282 13.12442947192115
ONEWEB-0140             
1 47286U 20100AE  24345.79246119  .00000173  00000+0  44503-3 0  9996
2 47286  87.8879 100.8413 0001444 105.0736 255.0552 13.12441651192103
ONEWEB-0141             
1 47287U 20100AF  24345.76149977  .00000102  00000+0  24908-3 0  9997
2 47287  87.8880 100.8616 0001718 105.0204 255.1114 13.12445370192089
ONEWEB-0142             
1 47288U 20100AG  24345.72999626 -.00000279  00000+0 -81100-3 0  9992
2 47288  87.8881 100.8487 0001643 113.2103 246.9198 13.12440288192075
ONEWEB-0143             
1 47289U 20100AH  24345.60753017  .00000108  00000+0  26515-3 0  9990
2 47289  87.8881 100.8955 0001591 103.3114 256.8192 13.12441984192034
ONEWEB-0144             
1 47290U 20100AJ  24345.73244129 -.00000333  00000+0 -96051-3 0  9999
2 47290  87.8880 100.8531 0001473 116.8278 243.3001 13.12442528191971
ONEWEB-0145             
1 47291U 20100AK  24345.32205995  .00000451  00000+0  12192-2 0  9995
2 47291  87.8882 100.9599 0001465 108.2149 251.9139 13.12443607192115
ONEWEB-0146             
1 47292U 20100AL  24345.77624254  .00000507  00000+0  13732-2 0  9991
2 47292  87.8881 100.8544 0001691  88.8552 271.2771 13.12443944192083
ONEWEB-0147             
1 47293U 20100AM  24345.58970312 -.00000316  00000+0 -91341-3 0  9993
2 47293  87.8879 100.8787 0001238 105.2879 254.8386 13.12444166191954
ONEWEB-0115             
1 48042U 21025A   24345.66898348 -.00000096  00000+0 -29709-3 0  9994
2 48042  87.8923  70.3162 0001731 101.3298 258.8026 13.13468412180937
ONEWEB-0152             
1 48043U 21025B   24345.52934371  .00000261  00000+0  67993-3 0  9996
2 48043  87.8929  70.3489 0001632 101.6863 258.4449 13.13471862180878
ONEWEB-0153             
1 48044U 21025C   24345.65947365 -.00000285  00000+0 -81523-3 0  9991
2 48044  87.8933  70.3154 0001690 106.1037 254.0278 13.13470771180881
ONEWEB-0154             
1 48045U 21025D   24345.65629812 -.00000279  00000+0 -79893-3 0  9996
2 48045  87.8932  70.3218 0001628 101.7172 258.4140 13.13470438180846
ONEWEB-0116             
1 48046U 21025E   24345.54521158  .00000367  00000+0  96947-3 0  9994
2 48046  87.8933  70.3185 0001680  98.0458 262.0861 13.13468246180973
ONEWEB-0150             
1 48047U 21025F   24345.67217510 -.00000043  00000+0 -15280-3 0  9997
2 48047  87.8926  70.3015 0001850 107.4665 252.6666 13.13470906180886
ONEWEB-0107             
1 48048U 21025G   24345.52140046  .00000023  00000+0  27933-4 0  9996
2 48048  87.8926  70.3294 0001676 118.4758 241.6540 13.13469599180848
ONEWEB-0101             
1 48049U 21025H   24345.71343813 -.00000044  00000+0 -15564-3 0  9996
2 48049  87.8933  70.3179 0001583 107.2165 252.9138 13.13469849180840
ONEWEB-0113             
1 48050U 21025J   24345.69122405  .00000396  00000+0  10498-2 0  9995
2 48050  87.8931  70.3029 0001726  99.8891 260.2433 13.13470487180924
ONEWEB-0112             
1 48051U 21025K   24345.52616555  .00000239  00000+0  61905-3 0  9998
2 48051  87.8926  70.3257 0001798 104.1857 255.9472 13.13469169180911
